ZHOU ENLAI              
1 43156U 18008B   21215.51546140  .00001773  00000-0  10613-3 0  9995
2 43156  97.4035 278.9020 0015007 159.4580 314.3592 15.12187018195121
QUANTUTONG 1            
1 43158U 18008D   21215.20408834  .00000928  00000-0  58275-4 0  9998
2 43158  97.3972 277.1069 0013836 159.5321 276.8938 15.11593234195001
S-NET D                 
1 43186U 18014G   21215.00923981  .00000380  00000-0  37937-4 0  9993
2 43186  97.6730 121.7537 0009528 287.9688  72.0495 14.97097482191261
S-NET B                 
1 43187U 18014H   21214.60815001  .00000342  00000-0  34615-4 0  9990
2 43187  97.6728 121.3248 0009556 289.4145  70.6044 14.97096493191209
S-NET A                 
1 43188U 18014J   21215.00926183  .00000378  00000-0  37743-4 0  9994
2 43188  97.6731 121.7653 0009514 288.0052  72.0132 14.97095780191262
S-NET C                 
1 43189U 18014K   21215.00974938  .00000400  00000-0  39627-4 0  9995
2 43189  97.6727 121.7112 0009482 287.8780  72.1407 14.97095649189815
FENGMANIU-1 (FMN-1)     
1 43192U 18015A   21215.48442631  .00003912  00000-0  14369-3 0  9998
2 43192  97.4949 351.1112 0015966  78.2719 350.1233 15.28424989194775
SHAONIAN XING           
1 43199U 18015H   21215.52476188  .00002782  00000-0  10485-3 0  9993
2 43199  97.4729 348.1319 0017382  86.9478 335.4873 15.27803421194839
LUOJIA-1 01             
1 43485U 18048B   21215.48722606  .00000230  00000-0  39945-4 0  9990
2 43485  97.9605 296.5358 0012237 139.9356 220.2766 14.76878671170931
SURFSAT                 
1 43614U 18070B   21214.99809267  .00005119  00000-0  11746-3 0  9992
2 43614  93.0352 325.3935 0014222 172.2730 187.8748 15.42649685161848
CP7 (DAVE)              
1 43615U 18070C   21214.76487887  .00004366  00000-0  10127-3 0  9993
2 43615  93.0357 325.2461 0014353 173.3258 186.8192 15.42335609161793
ELFIN-B                 
1 43616U 18070D   21215.08461111  .00007667  00000-0  15933-3 0  9999
2 43616  93.0308 325.6285 0014331 169.6081 190.5476 15.45557980161974
ELFIN-A                 
1 43617U 18070E   21214.77058333  .00007609  00000-0  15543-3 0  9996
2 43617  93.0355 326.3886 0013756 167.2648 192.8960 15.46070950161943
CZ-4B R/B               
1 43656U 18081B   21215.13038924 -.00000032  00000-0  82523-5 0  9994
2 43656  99.3673 318.9554 0208204 339.1169  20.1598 14.30473832144847
CUBEBEL-1 (BSUSAT-1)    
1 43666U 18083E   21215.47493243  .00001923  00000-0  93539-4 0  9990
2 43666  97.4538 243.2494 0014767  12.1905 131.6195 15.19525875153153
CHANGSHAGAOXIN (TY 4-01)
1 43669U 18083H   21215.50182296  .00001609  00000-0  81728-4 0  9998
2 43669  97.4443 240.2041 0010920   9.7617 127.4155 15.18273354153021
TEN-KOH                 
1 43677U 18084G   21215.11313450  .00000122  00000-0  18426-4 0  9997
2 43677  97.9254 338.2851 0014779 238.1230 121.8550 14.90495528150254
DIWATA-2B               
1 43678U 18084H   21215.54088330  .00000125  00000-0  18192-4 0  9994
2 43678  97.9296 341.0766 0008416 252.5085 107.5167 14.91771985150459
STARS-AO                
1 43679U 18084J   21215.09096761  .00000495  00000-0  53881-4 0  9996
2 43679  97.9334 341.9146 0007708 261.8818  98.1527 14.92558997150445
AUTCUBE 2               
1 43681U 18084K   21215.06723007  .00000059  00000-0  11519-4 0  9994
2 43681  97.9299 340.9465 0008079 254.8851 105.1474 14.92123530150364
IRVINE01                
1 43693U 18088D   21214.59313199  .00003835  00000-0  14714-3 0  9999
2 43693  85.0358 164.2884 0014706 205.4613 154.5908 15.26025613151479
ES'HAIL 2               
1 43700U 18090A   21214.71664876  .00000147  00000-0  00000-0 0  9999
2 43700   0.0168  83.3733 0001803  94.9475  56.9493  1.00272093  9838
FACSAT-1                
1 43721U 18096C   21215.52269341  .00003039  00000-0  10958-3 0  9995
2 43721  97.3836 292.3075 0018388 103.9055  24.3811 15.29161284149310
CENTAURI-2              
1 43722U 18096D   21214.64945955  .00003031  00000-0  10541-3 0  9990
2 43722  97.3862 292.3349 0017960 105.2650 255.0578 15.30350989149222
3CAT-1                  
1 43728U 18096K   21215.50822081  .00003869  00000-0  13255-3 0  9990
2 43728  97.3867 293.7853 0018040 106.0220  19.5075 15.30663160149380
INNOSAT-2               
1 43738U 18096V   21215.51541461  .00005880  00000-0  17946-3 0  9998
2 43738  97.3912 297.2643 0022557 102.6735  22.9747 15.34057140149618
REAKTOR HELLO WORLD     
1 43743U 18096AA  21214.98304944  .00002108  00000-0  77121-4 0  9999
2 43743  97.3844 292.1425 0018718 110.2407 250.0848 15.29020512149247
ELYSIUM STAR 2 & LFF    
1 43760U 18099C   21215.26908234  .00001272  00000-0  11715-3 0  9992
2 43760  97.6679 285.6250 0012291 246.8688 113.1238 14.96419399145511
2018-099D               
1 43761U 18099D   21215.12257487 -.00000217  00000-0 -14477-4 0  9994
2 43761  97.6632 284.7164 0013130 252.6550 107.3240 14.95324598145435
AISTECHSAT 2            
1 43768U 18099L   21214.48872071  .00000207  00000-0  24104-4 0  9996
2 43768  97.6600 282.9479 0009893 253.3786 106.6348 14.94944950145021
FOX-1CLIFF (AO-95)      
1 43770U 18099N   21214.42081301  .00000471  00000-0  47775-4 0  9993
2 43770  97.6629 283.5886 0012865 263.2167  96.7590 14.95376776145327
RANGE-A                 
1 43772U 18099Q   21214.43972114  .00000023  00000-0  72118-5 0  9990
2 43772  97.6715 284.6744 0012660 248.7400 111.2469 14.95688617145330
RANGE-B                 
1 43773U 18099R   21215.16593280 -.00000062  00000-0 -45569-6 0  9991
2 43773  97.6561 283.5932 0012076 246.2892 113.7063 14.95255376145425
2018-099T               
1 43775U 18099T   21214.62963808 -.00000034  00000-0  21209-5 0  9992
2 43775  97.6631 283.9998 0013104 252.9280 107.0506 14.95320934145352
MOVE-II                 
1 43780U 18099Y   21214.63076979  .00000336  00000-0  35067-4 0  9993
2 43780  97.6650 284.3825 0011802 258.5184 101.4712 14.96011763145378
SNUSAT-2                
1 43782U 18099AA  21215.18212161  .00000114  00000-0  15343-4 0  9990
2 43782  97.6623 284.6906 0011413 244.4966 115.5075 14.95611687145450
SNUGLITE                
1 43784U 18099AC  21214.65132691  .00000175  00000-0  20778-4 0  9997
2 43784  97.6587 283.8861 0013652 255.1997 104.7711 14.95740483145399
ITASAT 1                
1 43786U 18099AE  21215.13393301  .00000620  00000-0  60842-4 0  9991
2 43786  97.6645 284.9965 0013688 252.4293 107.5433 14.95661253145468
KAZSCISAT-1             
1 43787U 18099AF  21214.63946447  .00000041  00000-0  87257-5 0  9998
2 43787  97.6560 283.6826 0012676 251.0350 108.9498 14.96177484145412
EAGLET-I                
1 43790U 18099AJ  21215.15754324  .00000445  00000-0  44722-4 0  9998
2 43790  97.6640 285.4502 0011799 256.6312 103.3595 14.96015024145193
ESEO                    
1 43792U 18099AL  21215.14986424  .00000479  00000-0  48010-4 0  9998
2 43792  97.6604 284.9976 0011686 253.4192 106.5746 14.95763938145242
CSIM-FD                 
1 43793U 18099AM  21215.14725334  .00001250  00000-0  11445-3 0  9999
2 43793  97.6638 285.4632 0011315 247.0241 112.9787 14.96676622145259
ASTROCAST 0.1           
1 43798U 18099AS  21214.43139786  .00000115  00000-0  15226-4 0  9996
2 43798  97.6646 284.9547 0010921 236.3812 123.6367 14.96246371145391
JY1SAT (JO-97)          
1 43803U 18099AX  21215.15682165  .00000473  00000-0  47355-4 0  9992
2 43803  97.6612 284.7656 0013463 252.5447 107.4303 14.95922439145472
SUOMI-100               
1 43804U 18099AY  21215.16325739  .00000199  00000-0  22856-4 0  9999
2 43804  97.6608 284.7347 0013607 252.9610 107.0121 14.95891049145488
AL-FARABI 2             
1 43805U 18099AZ  21214.82288111  .00001242  00000-0  11530-3 0  9990
2 43805  97.6617 284.6463 0013379 251.9204 108.0539 14.96125588145440
CENTAURI-1              
1 43809U 18099BD  21214.64000746 -.00000209  00000-0 -13549-4 0  9997
2 43809  97.6618 284.5339 0013721 256.0907 103.8789 14.95876508145100
CHOMPTT                 
1 43855U 18104G   21215.13666823  .00001289  00000-0  51169-4 0  9991
2 43855  85.0353 262.5588 0016000 342.0317  18.0358 15.24135875146203
DAVINCI                 
1 43857U 18104J   21215.47777728  .00003605  00000-0  13889-3 0  9997
2 43857  85.0304 262.0083 0014151   7.7278 352.4181 15.25874437146251
UWE-4                   
1 43880U 18111E   21214.70800938  .00000252  00000-0  26989-4 0  9997
2 43880  97.6837 121.6466 0011102 316.1522  43.8817 14.96930890142003
ZACUBE-2                
1 43907U 18111AH  21215.50280358  .00000880  00000-0  37495-4 0  9995
2 43907  97.2270 108.0533 0022554 124.1393 354.1509 15.25293529144800
MICRODRAGON             
1 43935U 19003D   21214.70043874  .00001069  00000-0  47628-4 0  9997
2 43935  97.1779 254.1361 0016680 218.7072 141.2972 15.23395352141141
AOBA VELOX-IV           
1 43940U 19003J   21215.08027655  .00003722  00000-0  13944-3 0  9995
2 43940  97.1750 257.4162 0021693 198.7213 161.3231 15.27653366141423
M6P                     
1 44109U 19018AF  21215.48007517  .00003591  00000-0  10914-3 0  9996
2 44109  97.4251 292.8292 0055282 183.6752 176.4092 15.33219256130668
SPOOQY-1                
1 44332U 98067QH  21214.94356477  .00092007  00000-0  43330-3 0  9995
2 44332  51.6327  45.3806 0001663 163.2582 196.8475 15.82345744121446
FORMOSAT 7-4            
1 44350U 19036M   21214.85063389  .00000986  00000-0  41051-4 0  9995
2 44350  24.0003  51.6560 0005838 242.4345 117.5565 15.07858014115374
PAINANI 1               
1 44365U 19037A   21214.66494808  .00004470  00000-0  11162-3 0  9996
2 44365  45.0060   0.1521 0003428 136.0578 224.0584 15.41720934117904
ACRUX 1                 
1 44369U 19037E   21214.53585848  .00008793  00000-0  16895-3 0  9991
2 44369  45.0064 335.7185 0007225 108.3141 251.8536 15.48377503118130
METEOR-M2 2             
1 44387U 19038A   21215.48927360 -.00000031  00000-0  55383-5 0  9991
2 44387  98.6733 174.6727 0002355  99.2223 260.9222 14.23689787108164
